NUSAT-48 (HENRIETTA LE*)
1 60498U 24149AG  26068.80506098  .00012988  00000+0  45212-3 0  9999
2 60498  97.3923 150.8264 0002754 263.3026  96.7901 15.29812597 86946
STARLINK-32816          
1 63050U 25034X   26068.88097850  .00030074  00000+0  10233-2 0  9999
2 63050  53.1603 270.1885 0000856  94.5988 265.5110 15.30202650 58936
